[{"OBJECT_NAME":"KUIPER-00029","OBJECT_ID":"2025-088U","EPOCH":"2026-03-09T22:00:01.999584","MEAN_MOTION":14.81069355,"ECCENTRICITY":9.383e-5,"INCLINATION":51.9005,"RA_OF_ASC_NODE":89.6043,"ARG_OF_PERICENTER":137.8854,"MEAN_ANOMALY":294.3831,"EPHEMERIS_TYPE":0,"CLASSIFICATION_TYPE":"U","NORAD_CAT_ID":63742,"ELEMENT_SET_NO":999,"REV_AT_EPOCH":574,"BSTAR":0.002151491,"MEAN_MOTION_DOT":0.00016671,"MEAN_MOTION_DDOT":0},{"OBJECT_NAME":"CZ-6A DEB","OBJECT_ID":"2024-140ACY","EPOCH":"2026-03-09T14:54:50.736384","MEAN_MOTION":14.54934691,"ECCENTRICITY":0.0123024,"INCLINATION":89.1344,"RA_OF_ASC_NODE":292.6345,"ARG_OF_PERICENTER":163.255,"MEAN_ANOMALY":197.278,"EPHEMERIS_TYPE":0,"CLASSIFICATION_TYPE":"U","NORAD_CAT_ID":61832,"ELEMENT_SET_NO":999,"REV_AT_EPOCH":7868,"BSTAR":0.002232,"MEAN_MOTION_DOT":0.00010647,"MEAN_MOTION_DDOT":0}]
